OTTER PUP               
1 56933U 23084B   25026.31036805  .00032571  00000+0  90954-3 0  9991
2 56933  97.5513 154.6426 0004843 284.0278  76.0427 15.36642896 90269
GEISAT PRECURSOR        
1 56934U 23084C   25026.56192529  .00010096  00000+0  40660-3 0  9992
2 56934  97.5590 151.6412 0006689 340.8038  19.2946 15.25042882 90062
EIVE                    
1 56937U 23084F   25026.54042049  .00116273  00000+0  15704-2 0  9998
2 56937  97.5430 158.1910 0004953 287.5540  72.5174 15.57357601 90518
LAYAN-23                
1 56939U 23084H   25026.58401549  .00044665  00000+0  67874-3 0  9999
2 56939  97.5412 159.1956 0001715 315.9156  44.1960 15.54439464 90583
AFRL-XVI                
1 56942U 23084L   25026.33445394  .00033073  00000+0  68103-3 0  9999
2 56942  97.5526 157.8717 0003480 317.1440  42.9537 15.45862410 90457
BLACKJACK ACES-3        
1 56950U 23084U   25026.54445697  .00015353  00000+0  66546-3 0  9997
2 56950  97.5579 153.3346 0007220 310.1742  49.8861 15.22447876 90172
BLACKJACK ACES-4        
1 56952U 23084W   25026.35793999  .00041672  00000+0  10682-2 0  9991
2 56952  97.5557 155.1976 0007280 296.7760  63.2740 15.39222737 90287
BLACKJACK ACES-2        
1 56955U 23084Z   25026.58819141  .00018553  00000+0  80322-3 0  9998
2 56955  97.5576 153.3654 0007464 311.1613  48.8979 15.22444986 90183
BLACKJACK ACES-1        
1 56956U 23084AA  25026.30456067  .00021057  00000+0  91121-3 0  9995
2 56956  97.5540 153.0279 0007732 313.4781  46.5811 15.22430505 39864
ION SCV-011             
1 56957U 23084AB  25026.34577761  .00010108  00000+0  45981-3 0  9993
2 56957  98.0873 165.7775 0008610 358.8886   1.2327 15.20917195 88559
GHOST-3                 
1 56958U 23084AC  25026.31327148  .00018335  00000+0  65571-3 0  9990
2 56958  97.5585 152.5801 0009077 316.6170  43.4354 15.28822359 90101
TOMORROW-R2             
1 56962U 23084AG  25026.33518694  .00029520  00000+0  87642-3 0  9996
2 56962  97.5550 154.2841 0008134 305.5011  54.5473 15.34719701 90226
AFR-1                   
1 56964U 23084AJ  25026.54756308  .00008602  00000+0  38217-3 0  9999
2 56964  97.5626 150.7302 0011382 322.8556  37.1891 15.21727361 89990
DROID.001               
1 56965U 23084AK  25026.31311405  .00034874  00000+0  97352-3 0  9995
2 56965  97.5535 154.6468 0008094 300.4716  59.5727 15.36617867 90254
SPEI SATELLES           
1 56991U 23084BT  25026.34849916  .00130926  00000+0  15504-2 0  9993
2 56991  97.5423 159.6959 0006049 274.3526  85.7039 15.60794260 90601
URESAT-1                
1 56992U 23084BU  25026.42825198  .00480557  00000+0  21331-2 0  9992
2 56992  97.5278 160.3543 0010148 296.2354  63.7872 15.83091500 90664
METEOR-M2 3             
1 57166U 23091A   25026.56671075  .00000086  00000+0  56811-4 0  9990
2 57166  98.6831  84.8878 0003802 186.9852 173.1275 14.23972204 82412
STRATOSAT-TK 1 (RS52S)  
1 57167U 23091B   25026.59687990  .00035210  00000+0  12997-2 0  9999
2 57167  97.5780  86.8512 0012077  65.5403 294.7094 15.27610882 87475
UMKA 1 (RS40S)          
1 57172U 23091G   25026.58745365  .00008877  00000+0  50864-3 0  9990
2 57172  97.5810  82.7543 0016636  77.9314 282.3779 15.12718725 87200
2023-091H               
1 57173U 23091H   25026.60460581  .00013221  00000+0  70069-3 0  9996
2 57173  97.5809  83.3385 0014570  84.7429 275.5465 15.15425486 87240
2023-091J               
1 57174U 23091J   25026.57664502  .00005323  00000+0  33938-3 0  9990
2 57174  97.5819  81.2915 0016152  90.6041 269.7039 15.09034855 87108
CUBEBEL 2 (EU11S)       
1 57175U 23091K   25026.57709841  .00013789  00000+0  73313-3 0  9993
2 57175  97.5810  83.2170 0014525  87.1736 273.1158 15.15302720 87230
SITRO-AIS 5 (KATYS)     
1 57176U 23091L   25026.60343973  .00013608  00000+0  71419-3 0  9993
2 57176  97.5818  83.5622 0016737  76.0492 284.2600 15.15733323 87251
ZORKIY-2M 1             
1 57177U 23091M   25026.56797146  .00008978  00000+0  51568-3 0  9991
2 57177  97.5841  82.9164 0017196  74.1657 286.1468 15.12621917 87204
CUBESX-HSE 3 (RS42S)    
1 57178U 23091N   25026.58162654  .00015129  00000+0  77697-3 0  9991
2 57178  97.5842  84.1050 0016053  69.8793 290.4166 15.16484461 87272
MONITOR-3 (RS58S)       
1 57180U 23091Q   25026.54879314  .00012005  00000+0  63775-3 0  9990
2 57180  97.5840  83.6406 0016736  71.2936 289.0111 15.15336189 87249
MONITOR-4 (RS57S)       
1 57182U 23091S   25026.54870772  .00012963  00000+0  68784-3 0  9999
2 57182  97.5835  83.5999 0016748  71.8855 288.4200 15.15356539 87243
MONITOR-2 (RS39S)       
1 57184U 23091U   25026.58405275  .00007947  00000+0  46371-3 0  9991
2 57184  97.5839  83.1385 0014348  68.7432 291.5330 15.12130908 87217
SVYATOBOR 1 (RS60S)     
1 57187U 23091X   25026.58486740  .00011541  00000+0  61070-3 0  9998
2 57187  97.5839  84.3730 0013206  63.6568 296.6018 15.15532608 87296
HORS 1                  
1 57188U 23091Y   25026.58218809  .00011868  00000+0  62808-3 0  9990
2 57188  97.5820  84.2351 0012655  64.1874 296.0662 15.15526882 87294
VIZARD-METEO (RS38S)    
1 57189U 23091Z   25026.54964812  .00015423  00000+0  74350-3 0  9995
2 57189  97.5831  85.4350 0011825  59.7206 300.5197 15.18746401 87362
NANOZOND 1 (RS49S)      
1 57190U 23091AA  25026.60939893  .00027649  00000+0  10700-2 0  9996
2 57190  97.5793  87.4562 0009249  58.6671 301.5471 15.26124754 87512
SITRO-AIS 6 (CHIRKIN)   
1 57192U 23091AC  25026.58447961  .00013658  00000+0  71804-3 0  9993
2 57192  97.5814  83.5715 0016483  75.7789 284.5273 15.15675077 87251
SITRO-AIS 8 (ANOKHIN)   
1 57193U 23091AD  25026.59792376  .00014970  00000+0  76512-3 0  9997
2 57193  97.5813  83.8477 0016129  76.0069 284.2956 15.16655155 87274
SITRO-AIS 7 (FARTUSHNIY)
1 57194U 23091AE  25026.53347304  .00013443  00000+0  70764-3 0  9996
2 57194  97.5814  83.4762 0016500  76.6300 283.6771 15.15635470 87248
AVION KALUGA 650        
1 57195U 23091AF  25026.58316365  .00009068  00000+0  51942-3 0  9990
2 57195  97.5850  83.5402 0013538  69.0671 291.2008 15.12764742 87235
HORS 2                  
1 57196U 23091AG  25026.61989505  .00014043  00000+0  70400-3 0  9996
2 57196  97.5837  85.0507 0012438  63.6474 296.6035 15.17394957 87346
A-SEANSAT-PG1           
1 57197U 23091AH  25026.58359075  .00017435  00000+0  83618-3 0  9999
2 57197  97.5812  85.2617 0011791  65.2894 294.9566 15.18898741 87362
YARILO 3                
1 57198U 23091AJ  25026.57792540  .00104239  00000+0  21771-2 0  9997
2 57198  97.5793  91.5876 0006076  43.4786 316.6941 15.45109690 87756
SITRO-AIS 10 (BURDAEV)  
1 57199U 23091AK  25026.58050465  .00017703  00000+0  83933-3 0  9990
2 57199  97.5824  85.5135 0011512  63.5773 296.6641 15.19298110 87372
SITRO-AIS 9 (SHCHUKIN)  
1 57201U 23091AM  25026.58559272  .00017013  00000+0  80927-3 0  9998
2 57201  97.5819  85.4697 0011490  63.7043 296.5370 15.19192725 87372
UTMN 2 (RS27S)          
1 57203U 23091AP  25026.59086907  .00014279  00000+0  71260-3 0  9992
2 57203  97.5829  85.0691 0012254  60.3849 299.8604 15.17551961 87343
SITRO-AIS 12 (SMIRENNIY)
1 57204U 23091AQ  25026.58532393  .00017257  00000+0  81610-3 0  9996
2 57204  97.5829  85.6935 0011358  58.0773 302.1564 15.19392613 87381
ARCCUBE 1 (RS25S)       
1 57205U 23091AR  25026.56282835  .00039871  00000+0  13432-2 0  9990
2 57205  97.5735  88.2254 0008625  56.5774 303.6290 15.30605713 87572
SITRO-AIS 11 (SHEFFER)  
1 57208U 23091AU  25026.61913680  .00016684  00000+0  78584-3 0  9995
2 57208  97.5828  85.7846 0011298  58.7465 301.4874 15.19540299 87396
H2SAT (HEINRICH HERTZ)  
1 57213U 23093A   25026.47618873  .00000105  00000+0  00000+0 0  9998
2 57213   0.0149  79.0969 0002397 285.2606 306.3099  1.00269909  5836
KUZGTU 1 (RS47S)        
1 57217U 23091AV  25026.56207080  .00014291  00000+0  74275-3 0  9994
2 57217  97.5819  83.7897 0016147  71.4238 288.8747 15.16074596 87260
2023-103B               
1 57422U 23103B   25026.57115054  .00136159  67433-5  44064-3 0  9996
2 57422  96.5343  92.3701 0012513 132.7098 227.5233 15.90645354 86174
FENGYUN 3F              
1 57490U 23111A   25026.61191938  .00000225  00000+0  12640-3 0  9990
2 57490  98.7445  99.4144 0001552 127.7471 232.3847 14.19982775 76978
HJ-2F                   
1 57519U 23116A   25026.59952829  .00018588  00000+0  71808-3 0  9990
2 57519  97.3873  36.0004 0014233 291.9037  68.0688 15.26209219 81713
XRISM                   
1 57800U 23137A   25026.05195777  .00008979  00000+0  59821-3 0  9992
2 57800  31.0037  29.2115 0008946 263.3571  96.6048 15.05786109 76176
VERONIKA                
1 58261U 23174F   25026.56632241  .00062591  00000+0  14606-2 0  9994
2 58261  97.4336 107.8548 0007818 169.2692 190.8723 15.41969550 67860
2024-149A               
1 60468U 24149A   25026.16084590  .00012774  00000+0  56292-3 0  9999
2 60468  97.4226 105.1940 0003257 200.1645 159.9463 15.21938844 24650
WARATAH SEED-1          
1 60469U 24149B   25026.20823042  .00010607  00000+0  46834-3 0  9992
2 60469  97.4213 105.2607 0001842 191.0906 169.0290 15.21924064 24664
PHISAT 2                
1 60470U 24149C   25026.17814264  .00020960  00000+0  93119-3 0  9997
2 60470  97.4248 105.2322 0001203 175.5378 184.5869 15.21555773 24659
LEMUR-2-TOMATOKECHUP    
1 60471U 24149D   25026.17911473  .00014969  00000+0  64314-3 0  9995
2 60471  97.4276 105.4320 0001429 207.9765 152.1395 15.22770540 24669
CONNECTA IOT-1          
1 60472U 24149E   25026.16031879  .00008742  00000+0  40225-3 0  9995
2 60472  97.4259 105.1109 0001136 224.9906 135.1237 15.20561627 24640
LOPEN                   
1 60473U 24149F   25026.21254392  .00016754  00000+0  70732-3 0  9997
2 60473  97.4266 105.5197 0000833 239.9067 120.2088 15.23340824 24676
ROCK                    
1 60474U 24149G   25026.21118748  .00016525  00000+0  69713-3 0  9995
2 60474  97.4265 105.5201 0000784 244.4003 115.7153 15.23371099 24678
